start=new Date('2021-12-18T00:00:00.000Z').valueOf();
sats=[{"PERIOD":"91.457","BSTAR":"0.00041857000000","EPHEMERIS_TYPE":"0","MEAN_MOTION_DDOT":"0.0000000000000","MEAN_MOTION_DOT":"0.00062214","DECAY_DATE":null,"ELEMENT_SET_NO":"999","SITE":"AFETR","ECCENTRICITY":"0.00113310","REF_FRAME":"TEME","COUNTRY_CODE":"US","INCLINATION":"53.0302","TLE_LINE1":"1 47986U 21024K   21351.86544691  .00062214  00000-0  41857-3 0  9991","EPOCH":"2021-12-17T20:46:14.613024","APOAPSIS":"353.652","LAUNCH_DATE":"2021-03-24","TIME_SYSTEM":"UTC","MEAN_MOTION":"15.74508290","MEAN_ELEMENT_THEORY":"SGP4","PERIAPSIS":"338.414","CENTER_NAME":"EARTH","REV_AT_EPOCH":"4359","NORAD_CAT_ID":"47986","MEAN_ANOMALY":"270.7243","OBJECT_TYPE":"PAYLOAD","GP_ID":"191902937","OBJECT_NAME":"STARLINK-2313","FILE":"3243045","TLE_LINE2":"2 47986  53.0302 305.7459 0011331  89.5074 270.7243 15.74508290 43591","SEMIMAJOR_AXIS":"6724.168","OBJECT_ID":"2021-024K","ARG_OF_PERICENTER":"89.5074","RCS_SIZE":"LARGE","CLASSIFICATION_TYPE":"U","RA_OF_ASC_NODE":"305.7459"},{"CLASSIFICATION_TYPE":"U","OBJECT_ID":"2021-024L","RCS_SIZE":"LARGE","ARG_OF_PERICENTER":"167.6712","RA_OF_ASC_NODE":"305.9242","GP_ID":"191880920","OBJECT_TYPE":"PAYLOAD","TLE_LINE2":"2 47987  53.0522 305.9242 0004308 167.6712 277.7688 16.08137785 43136","FILE":"3243043","SEMIMAJOR_AXIS":"6630.094","OBJECT_NAME":"STARLINK-2311","REV_AT_EPOCH":"4313","NORAD_CAT_ID":"47987","CENTER_NAME":"EARTH","MEAN_ANOMALY":"277.7688","PERIAPSIS":"249.103","MEAN_ELEMENT_THEORY":"SGP4","TIME_SYSTEM":"UTC","LAUNCH_DATE":"2021-03-24","MEAN_MOTION":"16.08137785","INCLINATION":"53.0522","TLE_LINE1":"1 47987U 21024L   21352.06838751  .02587894  77323-2  33995-2 0  9993","EPOCH":"2021-12-18T01:38:28.680864","COUNTRY_CODE":"US","APOAPSIS":"254.815","SITE":"AFETR","ELEMENT_SET_NO":"999","DECAY_DATE":null,"REF_FRAME":"TEME","ECCENTRICITY":"0.00043080","BSTAR":"0.00339950000000","EPHEMERIS_TYPE":"0","PERIOD":"89.545","MEAN_MOTION_DDOT":"0.0077323000000","MEAN_MOTION_DOT":"0.02587894"},{"TIME_SYSTEM":"UTC","LAUNCH_DATE":"2021-03-24","MEAN_MOTION":"15.14327071","TLE_LINE1":"1 47988U 21024M   21351.55345116  .00046408  00000-0  25036-2 0  9997","EPOCH":"2021-12-17T13:16:58.180224","INCLINATION":"53.0589","COUNTRY_CODE":"US","APOAPSIS":"524.175","SITE":"AFETR","ELEMENT_SET_NO":"999","DECAY_DATE":null,"REF_FRAME":"TEME","ECCENTRICITY":"0.00016670","EPHEMERIS_TYPE":"0","BSTAR":"0.00250360000000","PERIOD":"95.092","MEAN_MOTION_DOT":"0.00046408","MEAN_MOTION_DDOT":"0.0000000000000","CLASSIFICATION_TYPE":"U","RCS_SIZE":"MEDIUM","ARG_OF_PERICENTER":"72.1476","OBJECT_ID":"2021-024M","RA_OF_ASC_NODE":"38.2436","GP_ID":"191901936","OBJECT_TYPE":"PAYLOAD","FILE":"3243045","TLE_LINE2":"2 47988  53.0589  38.2436 0001667  72.1476 287.9699 15.14327071 42277","SEMIMAJOR_AXIS":"6901.159","OBJECT_NAME":"STARLINK-2306","NORAD_CAT_ID":"47988","REV_AT_EPOCH":"4227","CENTER_NAME":"EARTH","MEAN_ANOMALY":"287.9699","PERIAPSIS":"521.874","MEAN_ELEMENT_THEORY":"SGP4"},{"CLASSIFICATION_TYPE":"U","RCS_SIZE":"MEDIUM","ARG_OF_PERICENTER":"47.1045","OBJECT_ID":"2021-024N","RA_OF_ASC_NODE":"332.3844","GP_ID":"191902186","OBJECT_TYPE":"PAYLOAD","SEMIMAJOR_AXIS":"6925.443","TLE_LINE2":"2 47989  53.0551 332.3844 0002329  47.1045  19.9520 15.06369249  3613","FILE":"3243045","OBJECT_NAME":"STARLINK-2305","NORAD_CAT_ID":"47989","REV_AT_EPOCH":"361","CENTER_NAME":"EARTH","MEAN_ANOMALY":"19.9520","PERIAPSIS":"545.695","MEAN_ELEMENT_THEORY":"SGP4","TIME_SYSTEM":"UTC","LAUNCH_DATE":"2021-03-24","MEAN_MOTION":"15.06369249","TLE_LINE1":"1 47989U 21024N   21351.91667824  .00035016  00000-0  23599-2 0  9996","EPOCH":"2021-12-17T22:00:00.999936","INCLINATION":"53.0551","COUNTRY_CODE":"US","APOAPSIS":"548.921","SITE":"AFETR","DECAY_DATE":null,"ELEMENT_SET_NO":"999","REF_FRAME":"TEME","ECCENTRICITY":"0.00023290","EPHEMERIS_TYPE":"0","BSTAR":"0.00235990000000","PERIOD":"95.594","MEAN_MOTION_DDOT":"0.0000000000000","MEAN_MOTION_DOT":"0.00035016"},{"BSTAR":"0.00191800000000","EPHEMERIS_TYPE":"0","PERIOD":"95.594","MEAN_MOTION_DDOT":"0.0000000000000","MEAN_MOTION_DOT":"0.00028380","SITE":"AFETR","ELEMENT_SET_NO":"999","DECAY_DATE":null,"REF_FRAME":"TEME","ECCENTRICITY":"0.00014930","INCLINATION":"53.0512","TLE_LINE1":"1 47990U 21024P   21351.91667824  .00028380  00000-0  19180-2 0  9995","EPOCH":"2021-12-17T22:00:00.999936","COUNTRY_CODE":"US","APOAPSIS":"548.339","TIME_SYSTEM":"UTC","LAUNCH_DATE":"2021-03-24","MEAN_MOTION":"15.06370035","PERIAPSIS":"546.271","MEAN_ELEMENT_THEORY":"SGP4","REV_AT_EPOCH":"360","NORAD_CAT_ID":"47990","CENTER_NAME":"EARTH","MEAN_ANOMALY":"255.6714","GP_ID":"191903437","OBJECT_TYPE":"PAYLOAD","TLE_LINE2":"2 47990  53.0512 332.4198 0001493  66.2669 255.6714 15.06370035  3608","SEMIMAJOR_AXIS":"6925.440","FILE":"3243045","OBJECT_NAME":"STARLINK-2307","CLASSIFICATION_TYPE":"U","OBJECT_ID":"2021-024P","ARG_OF_PERICENTER":"66.2669","RCS_SIZE":"LARGE","RA_OF_ASC_NODE":"332.4198"},{"COUNTRY_CODE":"US","EPOCH":"2021-12-17T22:00:00.999936","TLE_LINE1":"1 47991U 21024Q   21351.91667824  .00043324  00000-0  30419-2 0  9999","INCLINATION":"53.0547","APOAPSIS":"553.585","LAUNCH_DATE":"2021-03-24","TIME_SYSTEM":"UTC","MEAN_MOTION":"15.04741768","PERIOD":"95.697","EPHEMERIS_TYPE":"0","BSTAR":"0.00304190000000","MEAN_MOTION_DOT":"0.00043324","MEAN_MOTION_DDOT":"0.0000000000000","DECAY_DATE":null,"ELEMENT_SET_NO":"999","SITE":"AFETR","ECCENTRICITY":"0.00018530","REF_FRAME":"TEME","OBJECT_TYPE":"PAYLOAD","GP_ID":"191903688","OBJECT_NAME":"STARLINK-2279","SEMIMAJOR_AXIS":"6930.435","TLE_LINE2":"2 47991  53.0547 346.6267 0001853  59.3010 240.9910 15.04741768  3602","FILE":"3243045","ARG_OF_PERICENTER":"59.3010","RCS_SIZE":"LARGE","OBJECT_ID":"2021-024Q","CLASSIFICATION_TYPE":"U","RA_OF_ASC_NODE":"346.6267","MEAN_ELEMENT_THEORY":"SGP4","PERIAPSIS":"551.016","CENTER_NAME":"EARTH","NORAD_CAT_ID":"47991","REV_AT_EPOCH":"360","MEAN_ANOMALY":"240.9910"},{"PERIAPSIS":"545.775","MEAN_ELEMENT_THEORY":"SGP4","MEAN_ANOMALY":"140.4170","REV_AT_EPOCH":"360","NORAD_CAT_ID":"47992","CENTER_NAME":"EARTH","SEMIMAJOR_AXIS":"6925.380","TLE_LINE2":"2 47992  53.0547 342.3899 0002123  51.5454 140.4170 15.06389805  3608","FILE":"3243045","OBJECT_NAME":"STARLINK-2229","GP_ID":"191902436","OBJECT_TYPE":"PAYLOAD","RA_OF_ASC_NODE":"342.3899","CLASSIFICATION_TYPE":"U","OBJECT_ID":"2021-024R","RCS_SIZE":"LARGE","ARG_OF_PERICENTER":"51.5454","MEAN_MOTION_DDOT":"0.0000000000000","MEAN_MOTION_DOT":"0.00008275","EPHEMERIS_TYPE":"0","BSTAR":"0.00057392000000","PERIOD":"95.593","REF_FRAME":"TEME","ECCENTRICITY":"0.00021230","SITE":"AFETR","ELEMENT_SET_NO":"999","DECAY_DATE":null,"APOAPSIS":"548.715","INCLINATION":"53.0547","EPOCH":"2021-12-17T22:00:00.999936","TLE_LINE1":"1 47992U 21024R   21351.91667824  .00008275  00000-0  57392-3 0  9996","COUNTRY_CODE":"US","MEAN_MOTION":"15.06389805","TIME_SYSTEM":"UTC","LAUNCH_DATE":"2021-03-24"},{"MEAN_MOTION":"15.06393811","TIME_SYSTEM":"UTC","LAUNCH_DATE":"2021-03-24","APOAPSIS":"548.244","EPOCH":"2021-12-17T19:56:08.519424","TLE_LINE1":"1 47993U 21024S   21351.83065416  .00000673  00000-0  64079-4 0  9992","INCLINATION":"53.0571","COUNTRY_CODE":"US","REF_FRAME":"TEME","ECCENTRICITY":"0.00014600","SITE":"AFETR","ELEMENT_SET_NO":"999","DECAY_DATE":null,"MEAN_MOTION_DOT":"0.00000673","MEAN_MOTION_DDOT":"0.0000000000000","EPHEMERIS_TYPE":"0","BSTAR":"0.00006407900000","PERIOD":"95.593","RA_OF_ASC_NODE":"22.7842","CLASSIFICATION_TYPE":"U","RCS_SIZE":"LARGE","ARG_OF_PERICENTER":"75.3143","OBJECT_ID":"2021-024S","TLE_LINE2":"2 47993  53.0571  22.7842 0001460  75.3143 284.8008 15.06393811 42579","FILE":"3243045","SEMIMAJOR_AXIS":"6925.368","OBJECT_NAME":"STARLINK-2273","GP_ID":"191902686","OBJECT_TYPE":"PAYLOAD","MEAN_ANOMALY":"284.8008","NORAD_CAT_ID":"47993","REV_AT_EPOCH":"4257","CENTER_NAME":"EARTH","PERIAPSIS":"546.221","MEAN_ELEMENT_THEORY":"SGP4"},{"MEAN_MOTION_DDOT":"0.0000000000000","MEAN_MOTION_DOT":"-0.00002157","EPHEMERIS_TYPE":"0","BSTAR":"-0.00012594000000","PERIOD":"95.592","REF_FRAME":"TEME","ECCENTRICITY":"0.00016570","SITE":"AFETR","ELEMENT_SET_NO":"999","DECAY_DATE":null,"APOAPSIS":"548.369","INCLINATION":"53.0558","TLE_LINE1":"1 47994U 21024T   21351.83479957 -.00002157  00000-0 -12594-3 0  9997","EPOCH":"2021-12-17T20:02:06.682848","COUNTRY_CODE":"US","MEAN_MOTION":"15.06397388","TIME_SYSTEM":"UTC","LAUNCH_DATE":"2021-03-24","PERIAPSIS":"546.074","MEAN_ELEMENT_THEORY":"SGP4","MEAN_ANOMALY":"301.6267","REV_AT_EPOCH":"4230","NORAD_CAT_ID":"47994","CENTER_NAME":"EARTH","FILE":"3243045","TLE_LINE2":"2 47994  53.0558  37.7581 0001657  58.4884 301.6267 15.06397388 42302","SEMIMAJOR_AXIS":"6925.357","OBJECT_NAME":"STARLINK-2290","GP_ID":"191902938","OBJECT_TYPE":"PAYLOAD","RA_OF_ASC_NODE":"37.7581","CLASSIFICATION_TYPE":"U","OBJECT_ID":"2021-024T","RCS_SIZE":"LARGE","ARG_OF_PERICENTER":"58.4884"},{"PERIAPSIS":"545.995","MEAN_ELEMENT_THEORY":"SGP4","REV_AT_EPOCH":"4279","NORAD_CAT_ID":"47995","CENTER_NAME":"EARTH","MEAN_ANOMALY":"307.8054","GP_ID":"191903189","OBJECT_TYPE":"PAYLOAD","TLE_LINE2":"2 47995  53.0602   3.1495 0001793  52.3098 307.8054 15.06392354 42798","FILE":"3243045","SEMIMAJOR_AXIS":"6925.372","OBJECT_NAME":"STARLINK-2309","CLASSIFICATION_TYPE":"U","OBJECT_ID":"2021-024U","ARG_OF_PERICENTER":"52.3098","RCS_SIZE":"LARGE","RA_OF_ASC_NODE":"3.1495","BSTAR":"0.00004594600000","EPHEMERIS_TYPE":"0","PERIOD":"95.593","MEAN_MOTION_DDOT":"0.0000000000000","MEAN_MOTION_DOT":"0.00000403","SITE":"AFETR","DECAY_DATE":null,"ELEMENT_SET_NO":"999","REF_FRAME":"TEME","ECCENTRICITY":"0.00017930","INCLINATION":"53.0602","TLE_LINE1":"1 47995U 21024U   21351.74678070  .00000403  00000-0  45946-4 0  9993","EPOCH":"2021-12-17T17:55:21.852480","COUNTRY_CODE":"US","APOAPSIS":"548.479","TIME_SYSTEM":"UTC","LAUNCH_DATE":"2021-03-24","MEAN_MOTION":"15.06392354"}];
